[{"OBJECT_NAME":"IRIDIUM 114","OBJECT_ID":"2017-003G","EPOCH":"2026-03-09T17:25:34.142304","MEAN_MOTION":14.34217503,"ECCENTRICITY":0.00021341,"INCLINATION":86.3979,"RA_OF_ASC_NODE":130.0546,"ARG_OF_PERICENTER":90.4305,"MEAN_ANOMALY":269.7135,"EPHEMERIS_TYPE":0,"CLASSIFICATION_TYPE":"U","NORAD_CAT_ID":41923,"ELEMENT_SET_NO":999,"REV_AT_EPOCH":47899,"BSTAR":9.4657235e-5,"MEAN_MOTION_DOT":2.85e-6,"MEAN_MOTION_DDOT":0},{"OBJECT_NAME":"FENGYUN 1C DEB","OBJECT_ID":"1999-025BVZ","EPOCH":"2026-03-08T12:44:59.216352","MEAN_MOTION":13.40601834,"ECCENTRICITY":0.04431453,"INCLINATION":102.7219,"RA_OF_ASC_NODE":281.7678,"ARG_OF_PERICENTER":133.2496,"MEAN_ANOMALY":230.651,"EPHEMERIS_TYPE":0,"CLASSIFICATION_TYPE":"U","NORAD_CAT_ID":31485,"ELEMENT_SET_NO":999,"REV_AT_EPOCH":91594,"BSTAR":0.0026426623,"MEAN_MOTION_DOT":2.526e-5,"MEAN_MOTION_DDOT":0}]
